CCSDS_OMM_VERS = 2.0
CREATION_DATE  = 
ORIGINATOR     = 

OBJECT_NAME    = HTV-X1
OBJECT_ID      = 2025-241A
CENTER_NAME    = EARTH
REF_FRAME      = TEME
TIME_SYSTEM    = UTC
MEAN_ELEMENT_THEORY = SGP/SGP4

EPOCH          = 2026-03-28T04:05:27.139200
MEAN_MOTION    = 15.32427502
ECCENTRICITY   = .000732
INCLINATION    = 51.6384
RA_OF_ASC_NODE = 344.0157
ARG_OF_PERICENTER = 242.7772
MEAN_ANOMALY   = 117.2464

EPHEMERIS_TYPE = 0
CLASSIFICATION_TYPE = U
NORAD_CAT_ID   = 66174
ELEMENT_SET_NO = 999
REV_AT_EPOCH   = 2377
BSTAR          = .97292E-4
MEAN_MOTION_DOT = .2722E-4
MEAN_MOTION_DDOT = 0

CCSDS_OMM_VERS = 2.0
CREATION_DATE  = 
ORIGINATOR     = 

OBJECT_NAME    = SZ-21 MODULE
OBJECT_ID      = 2025-246C
CENTER_NAME    = EARTH
REF_FRAME      = TEME
TIME_SYSTEM    = UTC
MEAN_ELEMENT_THEORY = SGP/SGP4

EPOCH          = 2026-03-28T00:28:50.929824
MEAN_MOTION    = 15.69941824
ECCENTRICITY   = .0001524
INCLINATION    = 41.4744
RA_OF_ASC_NODE = 90.4022
ARG_OF_PERICENTER = 210.0014
MEAN_ANOMALY   = 150.0741

EPHEMERIS_TYPE = 0
CLASSIFICATION_TYPE = U
NORAD_CAT_ID   = 66515
ELEMENT_SET_NO = 999
REV_AT_EPOCH   = 2095
BSTAR          = .31887E-3
MEAN_MOTION_DOT = .39261E-3
MEAN_MOTION_DDOT = 0

CCSDS_OMM_VERS = 2.0
CREATION_DATE  = 
ORIGINATOR     = 

OBJECT_NAME    = SHENZHOU-22
OBJECT_ID      = 2025-272A
CENTER_NAME    = EARTH
REF_FRAME      = TEME
TIME_SYSTEM    = UTC
MEAN_ELEMENT_THEORY = SGP/SGP4

EPOCH          = 2026-03-28T04:53:00.710880
MEAN_MOTION    = 15.61574783
ECCENTRICITY   = .0004098
INCLINATION    = 41.4668
RA_OF_ASC_NODE = 95.4304
ARG_OF_PERICENTER = 43.6624
MEAN_ANOMALY   = 316.4539

EPHEMERIS_TYPE = 0
CLASSIFICATION_TYPE = U
NORAD_CAT_ID   = 66645
ELEMENT_SET_NO = 999
REV_AT_EPOCH   = 28064
BSTAR          = .20559E-3
MEAN_MOTION_DOT = .17871E-3
MEAN_MOTION_DDOT = 0

CCSDS_OMM_VERS = 2.0
CREATION_DATE  = 
ORIGINATOR     = 

OBJECT_NAME    = SOYUZ-MS 28
OBJECT_ID      = 2025-275A
CENTER_NAME    = EARTH
REF_FRAME      = TEME
TIME_SYSTEM    = UTC
MEAN_ELEMENT_THEORY = SGP/SGP4

EPOCH          = 2026-03-28T03:57:10.437696
MEAN_MOTION    = 15.48601072
ECCENTRICITY   = .0006226
INCLINATION    = 51.6345
RA_OF_ASC_NODE = 341.0267
ARG_OF_PERICENTER = 240.9881
MEAN_ANOMALY   = 119.0483

EPHEMERIS_TYPE = 0
CLASSIFICATION_TYPE = U
NORAD_CAT_ID   = 66664
ELEMENT_SET_NO = 999
REV_AT_EPOCH   = 55925
BSTAR          = .24003E-3
MEAN_MOTION_DOT = .12619E-3
MEAN_MOTION_DDOT = 0

CCSDS_OMM_VERS = 2.0
CREATION_DATE  = 
ORIGINATOR     = 

OBJECT_NAME    = DUPLEX
OBJECT_ID      = 1998-067XS
CENTER_NAME    = EARTH
REF_FRAME      = TEME
TIME_SYSTEM    = UTC
MEAN_ELEMENT_THEORY = SGP/SGP4

EPOCH          = 2026-03-28T01:45:30.671424
MEAN_MOTION    = 15.57447133
ECCENTRICITY   = .0002792
INCLINATION    = 51.6304
RA_OF_ASC_NODE = 337.4187
ARG_OF_PERICENTER = 196.5882
MEAN_ANOMALY   = 163.5019

EPHEMERIS_TYPE = 0
CLASSIFICATION_TYPE = U
NORAD_CAT_ID   = 66906
ELEMENT_SET_NO = 999
REV_AT_EPOCH   = 1799
BSTAR          = .46704E-3
MEAN_MOTION_DOT = .34607E-3
MEAN_MOTION_DDOT = 0

CCSDS_OMM_VERS = 2.0
CREATION_DATE  = 
ORIGINATOR     = 

OBJECT_NAME    = ISS OBJECT XT
OBJECT_ID      = 1998-067XT
CENTER_NAME    = EARTH
REF_FRAME      = TEME
TIME_SYSTEM    = UTC
MEAN_ELEMENT_THEORY = SGP/SGP4

EPOCH          = 2026-03-28T01:50:16.122336
MEAN_MOTION    = 15.75968383
ECCENTRICITY   = .0005908
INCLINATION    = 51.6249
RA_OF_ASC_NODE = 331.4049
ARG_OF_PERICENTER = 198.8815
MEAN_ANOMALY   = 161.1966

EPHEMERIS_TYPE = 0
CLASSIFICATION_TYPE = U
NORAD_CAT_ID   = 66907
ELEMENT_SET_NO = 999
REV_AT_EPOCH   = 1807
BSTAR          = .13412E-2
MEAN_MOTION_DOT = .217682E-2
MEAN_MOTION_DDOT = 0

CCSDS_OMM_VERS = 2.0
CREATION_DATE  = 
ORIGINATOR     = 

OBJECT_NAME    = ISS OBJECT XU
OBJECT_ID      = 1998-067XU
CENTER_NAME    = EARTH
REF_FRAME      = TEME
TIME_SYSTEM    = UTC
MEAN_ELEMENT_THEORY = SGP/SGP4

EPOCH          = 2026-03-28T01:44:58.661088
MEAN_MOTION    = 15.76216894
ECCENTRICITY   = .0006133
INCLINATION    = 51.6247
RA_OF_ASC_NODE = 331.3755
ARG_OF_PERICENTER = 198.7840
MEAN_ANOMALY   = 161.2934

EPHEMERIS_TYPE = 0
CLASSIFICATION_TYPE = U
NORAD_CAT_ID   = 66908
ELEMENT_SET_NO = 999
REV_AT_EPOCH   = 1807
BSTAR          = .137E-2
MEAN_MOTION_DOT = .225038E-2
MEAN_MOTION_DDOT = 0

CCSDS_OMM_VERS = 2.0
CREATION_DATE  = 
ORIGINATOR     = 

OBJECT_NAME    = SILVERSAT
OBJECT_ID      = 1998-067XV
CENTER_NAME    = EARTH
REF_FRAME      = TEME
TIME_SYSTEM    = UTC
MEAN_ELEMENT_THEORY = SGP/SGP4

EPOCH          = 2026-03-28T02:13:05.356704
MEAN_MOTION    = 15.81335789
ECCENTRICITY   = .0006928
INCLINATION    = 51.6219
RA_OF_ASC_NODE = 329.9939
ARG_OF_PERICENTER = 204.2844
MEAN_ANOMALY   = 155.7832

EPHEMERIS_TYPE = 0
CLASSIFICATION_TYPE = U
NORAD_CAT_ID   = 66909
ELEMENT_SET_NO = 999
REV_AT_EPOCH   = 1809
BSTAR          = .15458E-2
MEAN_MOTION_DOT = .323857E-2
MEAN_MOTION_DDOT = 0

CCSDS_OMM_VERS = 2.0
CREATION_DATE  = 
ORIGINATOR     = 

OBJECT_NAME    = ISS OBJECT XW
OBJECT_ID      = 1998-067XW
CENTER_NAME    = EARTH
REF_FRAME      = TEME
TIME_SYSTEM    = UTC
MEAN_ELEMENT_THEORY = SGP/SGP4

EPOCH          = 2026-03-28T01:59:32.709408
MEAN_MOTION    = 15.74566527
ECCENTRICITY   = .0006305
INCLINATION    = 51.6240
RA_OF_ASC_NODE = 331.4401
ARG_OF_PERICENTER = 196.5269
MEAN_ANOMALY   = 163.5525

EPHEMERIS_TYPE = 0
CLASSIFICATION_TYPE = U
NORAD_CAT_ID   = 66910
ELEMENT_SET_NO = 999
REV_AT_EPOCH   = 1807
BSTAR          = .12836E-2
MEAN_MOTION_DOT = .195443E-2
MEAN_MOTION_DDOT = 0

CCSDS_OMM_VERS = 2.0
CREATION_DATE  = 
ORIGINATOR     = 

OBJECT_NAME    = ISS OBJECT XX
OBJECT_ID      = 1998-067XX
CENTER_NAME    = EARTH
REF_FRAME      = TEME
TIME_SYSTEM    = UTC
MEAN_ELEMENT_THEORY = SGP/SGP4

EPOCH          = 2026-03-28T00:53:28.223808
MEAN_MOTION    = 15.87650980
ECCENTRICITY   = .0008692
INCLINATION    = 51.6193
RA_OF_ASC_NODE = 328.8401
ARG_OF_PERICENTER = 208.4454
MEAN_ANOMALY   = 151.6078

EPHEMERIS_TYPE = 0
CLASSIFICATION_TYPE = U
NORAD_CAT_ID   = 66911
ELEMENT_SET_NO = 999
REV_AT_EPOCH   = 1809
BSTAR          = .16862E-2
MEAN_MOTION_DOT = .487256E-2
MEAN_MOTION_DDOT = 0

CCSDS_OMM_VERS = 2.0
CREATION_DATE  = 
ORIGINATOR     = 

OBJECT_NAME    = ISS OBJECT XY
OBJECT_ID      = 1998-067XY
CENTER_NAME    = EARTH
REF_FRAME      = TEME
TIME_SYSTEM    = UTC
MEAN_ELEMENT_THEORY = SGP/SGP4

EPOCH          = 2026-03-28T02:14:39.765984
MEAN_MOTION    = 15.67410233
ECCENTRICITY   = .0004311
INCLINATION    = 51.6270
RA_OF_ASC_NODE = 333.7912
ARG_OF_PERICENTER = 195.7948
MEAN_ANOMALY   = 164.2915

EPHEMERIS_TYPE = 0
CLASSIFICATION_TYPE = U
NORAD_CAT_ID   = 66912
ELEMENT_SET_NO = 999
REV_AT_EPOCH   = 1803
BSTAR          = .99368E-3
MEAN_MOTION_DOT = .110653E-2
MEAN_MOTION_DDOT = 0

CCSDS_OMM_VERS = 2.0
CREATION_DATE  = 
ORIGINATOR     = 

OBJECT_NAME    = KNACKSAT-2
OBJECT_ID      = 1998-067XZ
CENTER_NAME    = EARTH
REF_FRAME      = TEME
TIME_SYSTEM    = UTC
MEAN_ELEMENT_THEORY = SGP/SGP4

EPOCH          = 2026-03-28T01:43:32.705184
MEAN_MOTION    = 15.53334695
ECCENTRICITY   = .0009926
INCLINATION    = 51.6325
RA_OF_ASC_NODE = 340.4091
ARG_OF_PERICENTER = 252.2766
MEAN_ANOMALY   = 107.7141

EPHEMERIS_TYPE = 0
CLASSIFICATION_TYPE = U
NORAD_CAT_ID   = 67683
ELEMENT_SET_NO = 999
REV_AT_EPOCH   = 764
BSTAR          = .6472E-3
MEAN_MOTION_DOT = .41441E-3
MEAN_MOTION_DDOT = 0

